STARLINK-30276
1 57652U 23122W   26060.91668981  .01386738  00000+0  61314-1 0  9998
2 57652  43.0020 135.9613 0001769 300.3390  42.7538 15.18082269  5832
STARLINK-31052
1 58600U 23200M   26061.16668981  .02132564  00000+0  93426-1 0  9993
2 58600  43.0005 210.7090 0001733 238.4816 264.0617 15.18066504  5814
